{"type": "FeatureCollection", "features": [ {"type": "Feature", "properties": {"norad_id": 38755, "name": "SPOT 6", "group": "resource", "lat": 11.894091876324298, "lon": -133.65056354175147, "alt_km": 698.7500388042827, "timestamp": "2025-12-05T16:54:14.326723+00:00", "meta": {"OBJECT_NAME": "SPOT 6", "OBJECT_ID": "2012-047A", "EPOCH": "2025-12-05T07:54:17.747712", "MEAN_MOTION": 14.58592478, "ECCENTRICITY": 0.00010584, "INCLINATION": 98.1583, "RA_OF_ASC_NODE": 44.2499, "ARG_OF_PERICENTER": 101.0558, "MEAN_ANOMALY": 259.076, "EPHEMERIS_TYPE": 0, "CLASSIFICATION_TYPE": "U", "NORAD_CAT_ID": 38755, "ELEMENT_SET_NO": 999, "REV_AT_EPOCH": 70479, "BSTAR": 0.00018826757, "MEAN_MOTION_DOT": 8.31e-06, "MEAN_MOTION_DDOT": 0}, "tle": {"line1": "1 38755U 12047A   25339.32937208  .00000831  00000+0  18827-3 0  9998", "line2": "2 38755  98.1583  44.2499 0001058 101.0558 259.0760 14.58592478704799"}}, "geometry": {"type": "Point", "coordinates": [-133.65056354175147, 11.894091876324298]}}, {"type": "Feature", "properties": {"norad_id": 39019, "name": "PLEIADES 1B", "group": "resource", "lat": 66.2555460916332, "lon": 33.38012039565893, "alt_km": 690.5861206828049, "timestamp": "2025-12-05T16:54:14.326732+00:00", "meta": {"OBJECT_NAME": "PLEIADES 1B", "OBJECT_ID": "2012-068A", "EPOCH": "2025-12-05T06:42:58.796352", "MEAN_MOTION": 14.58541765, "ECCENTRICITY": 0.00012367, "INCLINATION": 98.1803, "RA_OF_ASC_NODE": 52.0492, "ARG_OF_PERICENTER": 87.3889, "MEAN_ANOMALY": 272.7451, "EPHEMERIS_TYPE": 0, "CLASSIFICATION_TYPE": "U", "NORAD_CAT_ID": 39019, "ELEMENT_SET_NO": 999, "REV_AT_EPOCH": 69258, "BSTAR": 0.00019339889, "MEAN_MOTION_DOT": 8.53e-06, "MEAN_MOTION_DDOT": 0}, "tle": {"line1": "1 39019U 12068A   25339.27984718  .00000853  00000+0  19340-3 0  9992", "line2": "2 39019  98.1803  52.0492 0001236  87.3889 272.7451 14.58541765692584"}}, "geometry": {"type": "Point", "coordinates": [33.38012039565893, 66.2555460916332]}}, {"type": "Feature", "properties": {"norad_id": 39030, "name": "GOKTURK 2", "group": "resource", "lat": -39.70019791175766, "lon": -4.737100901472284, "alt_km": 651.1052333965772, "timestamp": "2025-12-05T16:54:14.326741+00:00", "meta": {"OBJECT_NAME": "GOKTURK 2", "OBJECT_ID": "2012-073A", "EPOCH": "2025-12-05T07:46:14.306880", "MEAN_MOTION": 14.7527523, "ECCENTRICITY": 8.255e-05, "INCLINATION": 97.6898, "RA_OF_ASC_NODE": 181.3419, "ARG_OF_PERICENTER": 99.3606, "MEAN_ANOMALY": 260.7697, "EPHEMERIS_TYPE": 0, "CLASSIFICATION_TYPE": "U", "NORAD_CAT_ID": 39030, "ELEMENT_SET_NO": 999, "REV_AT_EPOCH": 69592, "BSTAR": 0.00018521303, "MEAN_MOTION_DOT": 1.207e-05, "MEAN_MOTION_DDOT": 0}, "tle": {"line1": "1 39030U 12073A   25339.32377670  .00001207  00000+0  18521-3 0  9994", "line2": "2 39030  97.6898 181.3419 0000825  99.3606 260.7697 14.75275230695923"}}, "geometry": {"type": "Point", "coordinates": [-4.737100901472284, -39.70019791175766]}}, {"type": "Feature", "properties": {"norad_id": 39084, "name": "LANDSAT 8", "group": "resource", "lat": -80.83636898553662, "lon": 111.36442937736003, "alt_km": 710.6887679325191, "timestamp": "2025-12-05T16:54:14.326750+00:00", "meta": {"OBJECT_NAME": "LANDSAT 8", "OBJECT_ID": "2013-008A", "EPOCH": "2025-12-05T07:24:33.900480", "MEAN_MOTION": 14.57102749, "ECCENTRICITY": 0.00011513, "INCLINATION": 98.2082, "RA_OF_ASC_NODE": 47.4917, "ARG_OF_PERICENTER": 85.2128, "MEAN_ANOMALY": 274.9202, "EPHEMERIS_TYPE": 0, "CLASSIFICATION_TYPE": "U", "NORAD_CAT_ID": 39084, "ELEMENT_SET_NO": 999, "REV_AT_EPOCH": 66966, "BSTAR": 0.00018948566, "MEAN_MOTION_DOT": 8.08e-06, "MEAN_MOTION_DDOT": 0}, "tle": {"line1": "1 39084U 13008A   25339.30872570  .00000808  00000+0  18949-3 0  9999", "line2": "2 39084  98.2082  47.4917 0001151  85.2128 274.9202 14.57102749669660"}}, "geometry": {"type": "Point", "coordinates": [111.36442937736003, -80.83636898553662]}}, {"type": "Feature", "properties": {"norad_id": 39086, "name": "SARAL", "group": "resource", "lat": 24.040646249091253, "lon": -12.425501752903184, "alt_km": 780.3224117042773, "timestamp": "2025-12-05T16:54:14.326760+00:00", "meta": {"OBJECT_NAME": "SARAL", "OBJECT_ID": "2013-009A", "EPOCH": "2025-12-05T06:07:26.796864", "MEAN_MOTION": 14.32753015, "ECCENTRICITY": 0.00026885, "INCLINATION": 98.5506, "RA_OF_ASC_NODE": 163.2832, "ARG_OF_PERICENTER": 123.0883, "MEAN_ANOMALY": 237.056, "EPHEMERIS_TYPE": 0, "CLASSIFICATION_TYPE": "U", "NORAD_CAT_ID": 39086, "ELEMENT_SET_NO": 999, "REV_AT_EPOCH": 66783, "BSTAR": 0.00011483912, "MEAN_MOTION_DOT": 2.69e-06, "MEAN_MOTION_DDOT": 0}, "tle": {"line1": "1 39086U 13009A   25339.25517126  .00000269  00000+0  11484-3 0  9997", "line2": "2 39086  98.5506 163.2832 0002688 123.0883 237.0560 14.32753015667839"}}, "geometry": {"type": "Point", "coordinates": [-12.425501752903184, 24.040646249091253]}}, {"type": "Feature", "properties": {"norad_id": 39150, "name": "GAOFEN-1", "group": "resource", "lat": -81.41977947752652, "lon": 162.93273970910852, "alt_km": 650.2063929073565, "timestamp": "2025-12-05T16:54:14.326769+00:00", "meta": {"OBJECT_NAME": "GAOFEN-1", "OBJECT_ID": "2013-018A", "EPOCH": "2025-12-05T07:34:06.331584", "MEAN_MOTION": 14.76513657, "ECCENTRICITY": 0.00177668, "INCLINATION": 97.9336, "RA_OF_ASC_NODE": 50.1056, "ARG_OF_PERICENTER": 166.2889, "MEAN_ANOMALY": 193.8808, "EPHEMERIS_TYPE": 0, "CLASSIFICATION_TYPE": "U", "NORAD_CAT_ID": 39150, "ELEMENT_SET_NO": 999, "REV_AT_EPOCH": 67963, "BSTAR": 0.00023213709, "MEAN_MOTION_DOT": 1.57e-05, "MEAN_MOTION_DDOT": 0}, "tle": {"line1": "1 39150U 13018A   25339.31535106  .00001570  00000+0  23214-3 0  9994", "line2": "2 39150  97.9336  50.1056 0017766 166.2889 193.8808 14.76513657679634"}}, "geometry": {"type": "Point", "coordinates": [162.93273970910852, -81.41977947752652]}}, {"type": "Feature", "properties": {"norad_id": 39160, "name": "VNREDSAT 1", "group": "resource", "lat": -79.20934459563605, "lon": 168.1605073201328, "alt_km": 685.6663862053092, "timestamp": "2025-12-05T16:54:14.326778+00:00", "meta": {"OBJECT_NAME": "VNREDSAT 1", "OBJECT_ID": "2013-021B", "EPOCH": "2025-12-05T07:30:43.138656", "MEAN_MOTION": 14.6490569, "ECCENTRICITY": 0.00013418, "INCLINATION": 97.9384, "RA_OF_ASC_NODE": 34.848, "ARG_OF_PERICENTER": 83.5864, "MEAN_ANOMALY": 276.5492, "EPHEMERIS_TYPE": 0, "CLASSIFICATION_TYPE": "U", "NORAD_CAT_ID": 39160, "ELEMENT_SET_NO": 999, "REV_AT_EPOCH": 67190, "BSTAR": 0.00026487956, "MEAN_MOTION_DOT": 1.371e-05, "MEAN_MOTION_DDOT": 0}, "tle": {"line1": "1 39160U 13021B   25339.31299929  .00001371  00000+0  26488-3 0  9994", "line2": "2 39160  97.9384  34.8480 0001341  83.5864 276.5492 14.64905690671903"}}, "geometry": {"type": "Point", "coordinates": [168.1605073201328, -79.20934459563605]}}, {"type": "Feature", "properties": {"norad_id": 39227, "name": "ARIRANG-5 (KOMPSAT-5)", "group": "resource", "lat": 58.964585798243114, "lon": 151.26192896119025, "alt_km": 544.576058495315, "timestamp": "2025-12-05T16:54:14.326787+00:00", "meta": {"OBJECT_NAME": "ARIRANG-5 (KOMPSAT-5)", "OBJECT_ID": "2013-042A", "EPOCH": "2025-12-05T07:03:43.111008", "MEAN_MOTION": 15.04514127, "ECCENTRICITY": 0.00041179, "INCLINATION": 97.615, "RA_OF_ASC_NODE": 163.7048, "ARG_OF_PERICENTER": 77.7016, "MEAN_ANOMALY": 282.4671, "EPHEMERIS_TYPE": 0, "CLASSIFICATION_TYPE": "U", "NORAD_CAT_ID": 39227, "ELEMENT_SET_NO": 999, "REV_AT_EPOCH": 67470, "BSTAR": 0.0002165701, "MEAN_MOTION_DOT": 2.973e-05, "MEAN_MOTION_DDOT": 0}, "tle": {"line1": "1 39227U 13042A   25339.29424897  .00002973  00000+0  21657-3 0  9994", "line2": "2 39227  97.6150 163.7048 0004117  77.7016 282.4671 15.04514127674707"}}, "geometry": {"type": "Point", "coordinates": [151.26192896119025, 58.964585798243114]}}, {"type": "Feature", "properties": {"norad_id": 39418, "name": "SKYSAT-A", "group": "resource", "lat": -72.98290944367254, "lon": -175.04509728795512, "alt_km": 524.9100974004159, "timestamp": "2025-12-05T16:54:14.326796+00:00", "meta": {"OBJECT_NAME": "SKYSAT-A", "OBJECT_ID": "2013-066C", "EPOCH": "2025-12-05T03:04:09.108480", "MEAN_MOTION": 15.1151777, "ECCENTRICITY": 0.00204042, "INCLINATION": 97.4119, "RA_OF_ASC_NODE": 29.5682, "ARG_OF_PERICENTER": 264.6839, "MEAN_ANOMALY": 95.2063, "EPHEMERIS_TYPE": 0, "CLASSIFICATION_TYPE": "U", "NORAD_CAT_ID": 39418, "ELEMENT_SET_NO": 999, "REV_AT_EPOCH": 65915, "BSTAR": 0.00042729792, "MEAN_MOTION_DOT": 7.213e-05, "MEAN_MOTION_DDOT": 0}, "tle": {"line1": "1 39418U 13066C   25339.12788320  .00007213  00000+0  42730-3 0  9995", "line2": "2 39418  97.4119  29.5682 0020404 264.6839  95.2063 15.11517770659154"}}, "geometry": {"type": "Point", "coordinates": [-175.04509728795512, -72.98290944367254]}}, {"type": "Feature", "properties": {"norad_id": 39419, "name": "DUBAISAT-2", "group": "resource", "lat": 59.89535929582541, "lon": 163.3617125602073, "alt_km": 540.9671032911256, "timestamp": "2025-12-05T16:54:14.326805+00:00", "meta": {"OBJECT_NAME": "DUBAISAT-2", "OBJECT_ID": "2013-066D", "EPOCH": "2025-12-05T06:49:26.707296", "MEAN_MOTION": 15.0824343, "ECCENTRICITY": 0.00112516, "INCLINATION": 97.4437, "RA_OF_ASC_NODE": 329.9224, "ARG_OF_PERICENTER": 348.7262, "MEAN_ANOMALY": 11.3713, "EPHEMERIS_TYPE": 0, "CLASSIFICATION_TYPE": "U", "NORAD_CAT_ID": 39419, "ELEMENT_SET_NO": 999, "REV_AT_EPOCH": 65714, "BSTAR": 0.0005318026, "MEAN_MOTION_DOT": 8.19e-05, "MEAN_MOTION_DDOT": 0}, "tle": {"line1": "1 39419U 13066D   25339.28433689  .00008190  00000+0  53180-3 0  9994", "line2": "2 39419  97.4437 329.9224 0011251 348.7262  11.3713 15.08243430657144"}}, "geometry": {"type": "Point", "coordinates": [163.3617125602073, 59.89535929582541]}}]}